SatCatId,ObjectName,LaunchYear,OrbitalPeriod,LaunchMass,StatusCode,Inclination,Status,UcsData,OrbitClassEstimated,LaunchSiteCountry,Owner,UseType,Purpose,LaunchVehicleClass,TLE1,TLE2,MeanMotion,Eccentricity,OrbitClass
14112,OPS 6432,1983,104.11,-1.0,UNK,63.3,Inactive,0,LEO,USA,USA,Unknown,Unknown,Unknown,1 14112U 83056A   25072.24329832  .00011993  00000+0  10925-2 0  9991,2 14112  63.3024  16.6486 0746451 124.6601 242.7139 13.83154052 44386,13.83154052,0.0746451,LEO
22307,COSMOS 2230,1993,104.82,-1.0,UNK,82.94,Inactive,0,LEO,Russia,Russia/USSR,Unknown,Unknown,Unknown,1 22307U 93001A   25072.61566058  .00000137  00000+0  13016-3 0  9994,2 22307  82.9365 269.0992 0024708  10.5632  50.6244 13.73824363603846,13.73824363,0.0024708,LEO
55081,OBJECT CA,2023,93.2,2.0,-,97.38,Inactive,1,LEO,USA,To Be Determined,Civil,Technology Development,Falcon,1 55081U 23001CA  25072.81395144  .00051202  00000+0  10767-2 0  9998,2 55081  97.3827 140.2959 0007866 285.0949  74.9429 15.45122123122018,15.45122123,0.0007866,LEO
14128,EUTELSAT 1-F1 (ECS 1),1983,1456.42,-1.0,-,12.43,Inactive,0,GSO,French Guiana,EUTELSAT,Unknown,Unknown,Unknown,1 14128U 83058A   25072.03141253 -.00000288  00000+0  00000+0 0  9992,2 14128  12.4261 332.7734 0008657 156.9488 203.0898  0.98872865113682,0.98872865,0.0008657,GSO
22321,COSMOS 2232,1993,717.07,-1.0,UNK,67.38,Inactive,0,MEO,Russia,Russia/USSR,Unknown,Unknown,Unknown,1 22321U 93006A   25070.30935847 -.00000182  00000+0  00000+0 0  9991,2 22321  67.3756 209.4326 5683151 134.4316 289.2135  2.00816739235111,2.00816739,0.5683151,MEO
55090,OBJECT CK,2023,89.05,270.0,-,97.36,Inactive,1,LEO,USA,To Be Determined,Commercial,Technology Development,Falcon,1 55090U 23001CK  25072.83706847  .03428471  24086-5  18098-2 0  9996,2 55090  97.3555 149.8430 0010221 265.9736  94.0384 16.19993182122651,16.19993182,0.0010221,LEO
14133,NAHUEL I2 (ANIK C2),1983,1452.74,-1.0,-,13.36,Inactive,0,GSO,USA,Argentina,Unknown,Unknown,Unknown,1 14133U 83059B   25070.89090257 -.00000005  00000+0  00000+0 0  9995,2 14133  13.3636 339.4169 0036711 109.6592 250.7423  0.99123226 41564,0.99123226,0.0036711,GSO
14134,PALAPA B1,1983,1436.83,-1.0,-,12.17,Inactive,0,GSO,USA,Indonesia,Unknown,Unknown,Unknown,1 14134U 83059C   25072.58478095 -.00000110  00000+0  00000+0 0  9991,2 14134  12.1729 332.6308 0002413  94.9649 118.2810  1.00220525116212,1.00220525,0.0002413,GSO
14139,OPS 3899,1983,111.29,-1.0,UNK,96.67,Inactive,0,LEO,USA,USA,Unknown,Unknown,Unknown,1 14139U 83060C   25072.42021267  .00000184  00000+0  73481-3 0  9993,2 14139  96.6685 141.5609 0002249  88.5515 271.5853 12.93953784276248,12.93953784,0.0002249,LEO
14143,GB 1,1983,104.76,-1.0,UNK,63.3,Inactive,0,LEO,USA,USA,Unknown,Unknown,Unknown,1 14143U 83056C   25072.47544950  .00006442  00000+0  67001-3 0  9991,2 14143  63.3045  81.6714 0772704 123.6699 244.0496 13.74506027283193,13.74506027,0.0772704,LEO
14144,GB 2,1983,104.78,-1.0,UNK,63.31,Inactive,0,LEO,USA,USA,Unknown,Unknown,Unknown,1 14144U 83056D   25072.51119066  .00006378  00000+0  67474-3 0  9995,2 14144  63.3054  84.3546 0771408 124.0033 243.6758 13.74286691292529,13.74286691,0.0771408,LEO
14147,COSMOS 1470,1983,94.0,-1.0,UNK,82.47,Inactive,0,LEO,Russia,Russia/USSR,Unknown,Unknown,Unknown,1 14147U 83061A   25072.59353291  .00018891  00000+0  60912-3 0  9995,2 14147  82.4725 127.3392 0009668 201.4893 158.5944 15.31997003 32245,15.31997003,0.0009668,LEO
38730,TIANLIAN 1-03,2012,1455.65,2200.0,-,4.71,Inactive,1,GSO,PRC,China,Government,Communications,Long March,1 38730U 12040A   25072.42389752 -.00000228  00000+0  00000+0 0  9995,2 38730   4.7112  66.9846 0014540 133.6979 248.6637  0.98924584 44057,0.98924584,0.001454,GSO
14154,HILAT,1983,100.13,-1.0,UNK,82.02,Inactive,0,LEO,USA,USA,Unknown,Unknown,Unknown,1 14154U 83063A   25072.48420963  .00001203  00000+0  38812-3 0  9997,2 14154  82.0228 229.2031 0038730 245.6469 173.5637 14.38182728181359,14.38182728,0.003873,LEO
14158,GALAXY 1 (G-1),1983,1437.78,-1.0,-,13.93,Inactive,0,GSO,USA,USA,Unknown,Unknown,Unknown,1 14158U 83065A   25072.48189799 -.00000230  00000+0  00000+0 0  9996,2 14158  13.9315 345.0736 0002157 297.9152 213.9118  1.00154437 42018,1.00154437,0.0002157,GSO
38735,YUBELEINY 2 (RS-40),2012,115.88,-1.0,-,82.48,Inactive,0,LEO,Russia,Russia/USSR,Unknown,Unknown,Unknown,1 38735U 12041C   25072.90102895  .00000025  00000+0  11186-3 0  9990,2 38735  82.4823   1.6964 0017665 355.1707   4.9200 12.42627543572762,12.42627543,0.0017665,LEO
14160,GORIZONT 7,1983,1464.17,-1.0,-,10.22,Inactive,0,GSO,Kazakhstan,Russia/USSR,Unknown,Unknown,Unknown,1 14160U 83066A   25072.46290682 -.00000194  00000+0  00000+0 0  9991,2 14160  10.2220 315.5447 0012196 336.6054   7.7359  0.98349134150217,0.98349134,0.0012196,GSO
14171,COSMOS 1473,1983,114.4,-1.0,UNK,74.02,Inactive,0,LEO,Russia,Russia/USSR,Unknown,Unknown,Unknown,1 14171U 83069A   25072.83730824  .00000004  00000+0  11896-3 0  9992,2 14171  74.0221 251.2252 0044278 236.2153 242.1744 12.58757492915850,12.58757492,0.0044278,LEO
14172,COSMOS 1474,1983,114.59,-1.0,UNK,74.03,Inactive,0,LEO,Russia,Russia/USSR,Unknown,Unknown,Unknown,1 14172U 83069B   25072.49880652  .00000016  00000+0  19313-3 0  9995,2 14172  74.0287 331.7788 0033283 335.3944 198.3265 12.56665920912404,12.5666592,0.0033283,LEO
14173,COSMOS 1475,1983,114.78,-1.0,UNK,74.03,Inactive,0,LEO,Russia,Russia/USSR,Unknown,Unknown,Unknown,1 14173U 83069C   25072.42745863 -.00000011  00000+0  32910-4 0  9998,2 14173  74.0251  51.7156 0021019  60.6545  56.3573 12.54571065909206,12.54571065,0.0021019,LEO
14174,COSMOS 1476,1983,114.97,-1.0,UNK,74.02,Inactive,0,LEO,Russia,Russia/USSR,Unknown,Unknown,Unknown,1 14174U 83069D   25072.60775005  .00000017  00000+0  21115-3 0  9999,2 14174  74.0240 128.4600 0010573 152.7328 319.7044 12.52534778906132,12.52534778,0.0010573,LEO
14175,COSMOS 1477,1983,115.16,-1.0,UNK,74.03,Inactive,0,LEO,Russia,Russia/USSR,Unknown,Unknown,Unknown,1 14175U 83069E   25072.44560193 -.00000032  00000+0 -10717-3 0  9997,2 14175  74.0257 207.7491 0001912 154.5546 263.2722 12.50448259902991,12.50448259,0.0001912,LEO
38752,RBSP A,2012,388.83,647.6,-,9.7,Inactive,1,MEO,USA,USA,Government,Earth Observation,Atlas,1 38752U 12046A   25072.73629384  .00053645  00000+0  22590-2 0  9998,2 38752   9.7017  34.5860 6269942  13.2609 357.5020  3.70440162130830,3.70440162,0.6269942,MEO
38753,RBSP B,2012,422.96,666.0,-,10.12,Inactive,1,MEO,USA,USA,Government,Earth Observation,Atlas,1 38753U 12046B   25072.69219682  .00031871  00000+0  18653-2 0  9992,2 38753  10.1180  93.4518 6469716 256.3180  28.6270  3.40552667128614,3.40552667,0.6469716,MEO
14176,COSMOS 1478,1983,115.36,-1.0,UNK,74.02,Inactive,0,LEO,Russia,Russia/USSR,Unknown,Unknown,Unknown,1 14176U 83069F   25072.64359118  .00000021  00000+0  24643-3 0  9992,2 14176  74.0239 289.8871 0011863 139.4035 277.5612 12.48254599899671,12.48254599,0.0011863,LEO
14177,COSMOS 1479,1983,115.56,-1.0,UNK,74.03,Inactive,0,LEO,Russia,Russia/USSR,Unknown,Unknown,Unknown,1 14177U 83069G   25072.87518083 -.00000013  00000+0  18141-4 0  9995,2 14177  74.0294  10.4353 0024175 247.8671 168.9998 12.46095547896611,12.46095547,0.0024175,LEO
38756,PROITERES,2012,97.24,-1.0,-,98.25,Inactive,0,LEO,India,Japan,Unknown,Unknown,Unknown,1 38756U 12047B   25072.79806159  .00003241  00000+0  42560-3 0  9993,2 38756  98.2506 336.4507 0012508  97.1262 263.1372 14.80938179674159,14.80938179,0.0012508,LEO
14178,COSMOS 1480,1983,115.78,-1.0,UNK,74.02,Inactive,0,LEO,Russia,Russia/USSR,Unknown,Unknown,Unknown,1 14178U 83069H   25072.49963932  .00000016  00000+0  22422-3 0  9999,2 14178  74.0223 101.0577 0036308 337.7512 137.4984 12.43693297892663,12.43693297,0.0036308,LEO
14180,GB 3,1983,104.58,-1.0,UNK,63.3,Inactive,0,LEO,USA,USA,Unknown,Unknown,Unknown,1 14180U 83056G   25072.53052868  .00007387  00000+0  69074-3 0  9992,2 14180  63.3021  75.3181 0775046 123.5977 244.1517 13.76943341295437,13.76943341,0.0775046,LEO
38761,CSSWE,2012,94.72,-1.0,-,64.67,Inactive,0,LEO,USA,USA,Unknown,Unknown,Unknown,1 38761U 12048D   25072.56858582  .00032003  00000+0  12159-2 0  9990,2 38761  64.6660 183.8621 0118858 298.3280  60.5897 15.20247514 45855,15.20247514,0.0118858,LEO
38762,CXBN,2012,95.35,-1.0,-,64.66,Inactive,0,LEO,USA,USA,Unknown,Unknown,Unknown,1 38762U 12048E   25072.57361198  .00017363  00000+0  85038-3 0  9993,2 38762  64.6605 235.8766 0138085 301.6789  57.0926 15.10222634 48457,15.10222634,0.0138085,LEO
38763,CP5,2012,95.15,-1.0,-,64.66,Inactive,0,LEO,USA,USA,Unknown,Unknown,Unknown,1 38763U 12048F   25072.59625023  .00020833  00000+0  94742-3 0  9994,2 38763  64.6561 217.9428 0131087 302.2092  56.6374 15.13336706 46734,15.13336706,0.0131087,LEO
14182,COSMOS 1481,1983,707.33,-1.0,UNK,71.04,Inactive,0,MEO,Russia,Russia/USSR,Unknown,Unknown,Unknown,1 14182U 83070A   25070.60635041 -.00000523  00000+0  00000+0 0  9992,2 14182  71.0386 275.6730 5583533 246.9252  46.4519  2.03583580230687,2.0358358,0.5583533,MEO
38765,RE,2012,95.38,-1.0,-,64.66,Inactive,0,LEO,USA,USA,Unknown,Unknown,Unknown,1 38765U 12048H   25072.17953174  .00017861  00000+0  88755-3 0  9995,2 38765  64.6559 237.9091 0138407 304.2791  54.5286 15.09691274 45548,15.09691274,0.0138407,LEO
14189,NAVSTAR 8 (OPS 9794),1983,751.1,-1.0,-,63.11,Inactive,0,MEO,USA,USA,Unknown,Unknown,Unknown,1 14189U 83072A   25070.50912856  .00000041  00000+0  00000+0 0  9996,2 14189  63.1108  82.1789 0213020  54.5237  62.8563  1.91719484217850,1.91719484,0.021302,MEO
38774,BEIDOU-2 M5,2012,773.15,-1.0,-,56.03,Inactive,0,MEO,PRC,China,Unknown,Unknown,Unknown,1 38774U 12050A   25070.68951203  .00000011  00000+0  00000+0 0  9995,2 38774  56.0323  78.2707 0042038 255.7738 103.7990  1.86251587 69237,1.86251587,0.0042038,MEO
6019,COSMOS 489,1972,104.64,-1.0,UNK,74.02,Inactive,0,LEO,Russia,Russia/USSR,Unknown,Unknown,Unknown,1 06019U 72035A   25072.62419846  .00000048  00000+0  72393-4 0  9998,2 06019  74.0226  12.5935 0023482  49.3575 124.0841 13.76104118653529,13.76104118,0.0023482,LEO
